{
  "type": "FeatureCollection",
  "features": [
    {
      "type": "Feature",
      "properties": {
        "norad_id": 66909,
        "name": "SILVERSAT",
        "group": "stations",
        "lat": 46.795365728208374,
        "lon": -170.0952282110987,
        "alt_km": 401.76507994522217,
        "timestamp": "2025-12-27T19:21:57.578440+00:00",
        "meta_object_name": "SILVERSAT",
        "meta_object_id": "1998-067XV",
        "meta_epoch": "2025-12-27T11:10:11.042112",
        "meta_mean_motion": 15.53674289,
        "meta_eccentricity": 0.0003945,
        "meta_inclination": 51.6313,
        "meta_ra_of_asc_node": 69.1235,
        "meta_arg_of_pericenter": 319.4612,
        "meta_mean_anomaly": 40.6084,
        "meta_ephemeris_type": 0,
        "meta_classification_type": "U",
        "meta_norad_cat_id": 66909,
        "meta_element_set_no": 999,
        "meta_rev_at_epoch": 390,
        "meta_bstar": 0.0011635,
        "meta_mean_motion_dot": 0.00076025,
        "meta_mean_motion_ddot": 0,
        "tle_line1": "1 66909U 98067XV  25361.46540558  .00076025  00000+0  11635-2 0  9991",
        "tle_line2": "2 66909  51.6313  69.1235 0003945 319.4612  40.6084 15.53674289  3908"
      },
      "geometry": {
        "type": "Point",
        "coordinates": [
          -170.0952282110987,
          46.795365728208374
        ]
      }
    },
    {
      "type": "Feature",
      "properties": {
        "norad_id": 66910,
        "name": "1998-067XW",
        "group": "stations",
        "lat": 42.83081591131272,
        "lon": -159.85878915859692,
        "alt_km": 402.85943325013886,
        "timestamp": "2025-12-27T19:21:57.578449+00:00",
        "meta_object_name": "1998-067XW",
        "meta_object_id": "1998-067XW",
        "meta_epoch": "2025-12-27T11:08:00.617856",
        "meta_mean_motion": 15.53557016,
        "meta_eccentricity": 0.0003698,
        "meta_inclination": 51.6304,
        "meta_ra_of_asc_node": 69.1129,
        "meta_arg_of_pericenter": 290.9058,
        "meta_mean_anomaly": 69.1536,
        "meta_ephemeris_type": 0,
        "meta_classification_type": "U",
        "meta_norad_cat_id": 66910,
        "meta_element_set_no": 999,
        "meta_rev_at_epoch": 390,
        "meta_bstar": 0.0010574,
        "meta_mean_motion_dot": 0.00068686,
        "meta_mean_motion_ddot": 0,
        "tle_line1": "1 66910U 98067XW  25361.46389604  .00068686  00000+0  10574-2 0  9991",
        "tle_line2": "2 66910  51.6304  69.1129 0003698 290.9058  69.1536 15.53557016  3900"
      },
      "geometry": {
        "type": "Point",
        "coordinates": [
          -159.85878915859692,
          42.83081591131272
        ]
      }
    },
    {
      "type": "Feature",
      "properties": {
        "norad_id": 66911,
        "name": "1998-067XX",
        "group": "stations",
        "lat": 25.495473439277752,
        "lon": -134.85067364339554,
        "alt_km": 403.5028487459831,
        "timestamp": "2025-12-27T19:21:57.578458+00:00",
        "meta_object_name": "1998-067XX",
        "meta_object_id": "1998-067XX",
        "meta_epoch": "2025-12-27T09:28:42.532608",
        "meta_mean_motion": 15.54137727,
        "meta_eccentricity": 0.0003462,
        "meta_inclination": 51.6308,
        "meta_ra_of_asc_node": 69.4034,
        "meta_arg_of_pericenter": 299.6786,
        "meta_mean_anomaly": 60.3859,
        "meta_ephemeris_type": 0,
        "meta_classification_type": "U",
        "meta_norad_cat_id": 66911,
        "meta_element_set_no": 999,
        "meta_rev_at_epoch": 388,
        "meta_bstar": 0.0012426,
        "meta_mean_motion_dot": 0.0008268,
        "meta_mean_motion_ddot": 0,
        "tle_line1": "1 66911U 98067XX  25361.39493672  .00082680  00000+0  12426-2 0  9993",
        "tle_line2": "2 66911  51.6308  69.4034 0003462 299.6786  60.3859 15.54137727  3888"
      },
      "geometry": {
        "type": "Point",
        "coordinates": [
          -134.85067364339554,
          25.495473439277752
        ]
      }
    },
    {
      "type": "Feature",
      "properties": {
        "norad_id": 66912,
        "name": "1998-067XY",
        "group": "stations",
        "lat": 42.7721928158651,
        "lon": 114.66178512269111,
        "alt_km": 404.1864338723217,
        "timestamp": "2025-12-27T19:21:57.578468+00:00",
        "meta_object_name": "1998-067XY",
        "meta_object_id": "1998-067XY",
        "meta_epoch": "2025-12-27T05:12:20.649888",
        "meta_mean_motion": 15.52574078,
        "meta_eccentricity": 0.0003872,
        "meta_inclination": 51.6314,
        "meta_ra_of_asc_node": 70.4653,
        "meta_arg_of_pericenter": 305.7746,
        "meta_mean_anomaly": 54.2884,
        "meta_ephemeris_type": 0,
        "meta_classification_type": "U",
        "meta_norad_cat_id": 66912,
        "meta_element_set_no": 999,
        "meta_rev_at_epoch": 385,
        "meta_bstar": 0.0008769,
        "meta_mean_motion_dot": 0.00054785,
        "meta_mean_motion_ddot": 0,
        "tle_line1": "1 66912U 98067XY  25361.21690567  .00054785  00000+0  87690-3 0  9998",
        "tle_line2": "2 66912  51.6314  70.4653 0003872 305.7746  54.2884 15.52574078  3854"
      },
      "geometry": {
        "type": "Point",
        "coordinates": [
          114.66178512269111,
          42.7721928158651
        ]
      }
    }
  ]
}